STARLINK-2212
1 27779C 21017BK  21325.14412749  .00238872  00000-0  14997-1 0  3254
2 27779  53.0544  57.5219 0001493  70.4163   3.5347 15.08551120    15
